NORAD_CAT_ID,OBJECT_NAME,OBJECT_TYPE,EPOCH,MEAN_MOTION,ECCENTRICITY,INCLINATION,RA_OF_ASC_NODE,ARG_OF_PERICENTER,MEAN_ANOMALY,BSTAR,MEAN_MOTION_DOT,MEAN_MOTION_DDOT,TLE_LINE0,TLE_LINE1,TLE_LINE2,SEMIMAJOR_AXIS,PERIOD,APOGEE,PERIGEE,DECAYED
49459.0,STARLINK-3141,PAYLOAD,2022-07-22 20:36:52,15.08836073,0.0002378,53.2195,51.01600000000001,72.5365,287.5887,0.00021683,3.164e-05,0.0,0 STARLINK-3141,1 49459U 21104BD  22203.85893912  .00003164  00000-0  21683-3 0  9990,2 49459  53.2195  51.0160 0002378  72.5365 287.5887 15.08836073 38624,6917.892,95.438,541.4019999999998,538.112,0.0
49459.0,STARLINK-3141,PAYLOAD,2022-07-23 01:23:01,15.08843553,0.0002368,53.2193,50.1238,72.8611,287.264,0.00035895,5.429999999999999e-05,0.0,0 STARLINK-3141,1 49459U 21104BD  22204.05765642  .00005430  00000-0  35895-3 0  9999,2 49459  53.2193  50.1238 0002368  72.8611 287.2640 15.08843553 38652,6917.87,95.437,541.373,538.096,0.0
49459.0,STARLINK-3141,PAYLOAD,2022-07-23 20:27:39,15.08840458,0.0002274,53.2186,46.5565,71.9409,288.1831,0.00025075,3.705e-05,0.0,0 STARLINK-3141,1 49459U 21104BD  22204.85253772  .00003705  00000-0  25075-3 0  9995,2 49459  53.2186  46.5565 0002274  71.9409 288.1831 15.08840458 38773,6917.879,95.438,541.317,538.1709999999998,0.0
49459.0,STARLINK-3141,PAYLOAD,2022-07-24 05:59:57,15.08838023,0.0002205,53.2184,44.7723,71.8928,288.2304,0.00017895,2.561e-05,0.0,0 STARLINK-3141,1 49459U 21104BD  22205.24997533  .00002561  00000-0  17895-3 0  9999,2 49459  53.2184  44.7723 0002205  71.8928 288.2304 15.08838023 38834,6917.886,95.438,541.2769999999998,538.226,0.0
49459.0,STARLINK-3141,PAYLOAD,2022-07-24 20:18:26,15.08834702,0.0001924,53.218,42.0956,72.5356,287.5847,1.6922e-05,-1.9e-07,0.0,0 STARLINK-3141,1 49459U 21104BD  22205.84614039 -.00000019  00000-0  16922-4 0  9990,2 49459  53.2180  42.0956 0001924  72.5356 287.5847 15.08834702 39991,6917.897,95.438,541.0930000000002,538.431,0.0
49459.0,STARLINK-3141,PAYLOAD,2022-07-24 21:53:49,15.08817506,0.0002032,53.218,41.7982,76.1646,283.9572,0.00024222,3.567e-05,0.0,0 STARLINK-3141,1 49459U 21104BD  22205.91238358  .00003567  00000-0  24222-3 0  9995,2 49459  53.2180  41.7982 0002032  76.1646 283.9572 15.08817506 38930,6917.949000000001,95.439,541.22,538.408,0.0
49459.0,STARLINK-3141,PAYLOAD,2022-07-25 13:47:39,15.08871921,0.0002157,53.2178,38.8243,69.6698,290.4526,-0.00039929,-6.643e-05,0.0,0 STARLINK-3141,1 49459U 21104BD  22206.57476385 -.00006643  00000-0 -39929-3 0  9992,2 49459  53.2178  38.8243 0002157  69.6698 290.4526 15.08871921 39031,6917.783,95.436,541.14,538.156,0.0
49459.0,STARLINK-3141,PAYLOAD,2022-07-25 18:33:49,15.088415,0.0001969,53.2178,37.9322,73.6035,286.5173,5.8154e-05,6.37e-06,0.0,0 STARLINK-3141,1 49459U 21104BD  22206.77349277  .00000637  00000-0  58154-4 0  9990,2 49459  53.2178  37.9322 0001969  73.6035 286.5173 15.08841500 40136,6917.876,95.437,541.1030000000002,538.379,0.0
49459.0,STARLINK-3141,PAYLOAD,2022-07-25 20:09:12,15.08841469,0.0001971,53.2178,37.6349,73.5976,286.5233,5.6837e-05,6.17e-06,0.0,0 STARLINK-3141,1 49459U 21104BD  22206.83973279  .00000617  00000-0  56837-4 0  9996,2 49459  53.2178  37.6349 0001971  73.5976 286.5233 15.08841469 39070,6917.876,95.437,541.104,538.377,0.0
49459.0,STARLINK-3141,PAYLOAD,2022-07-26 12:03:03,15.08845016,0.0001940999999999,53.218,34.6612,73.5572,286.5633,4.7373e-05,4.66e-06,0.0,0 STARLINK-3141,1 49459U 21104BD  22207.50212857  .00000466  00000-0  47373-4 0  9996,2 49459  53.2180  34.6612 0001941  73.5572 286.5633 15.08845016 39179,6917.865,95.437,541.073,538.387,0.0
49459.0,STARLINK-3141,PAYLOAD,2022-07-26 20:00:00,15.08833336,0.0001916,53.2179,33.1742,73.3813,286.7389,3.4617e-05,2.63e-06,0.0,0 STARLINK-3141,1 49459U 21104BD  22207.83333686  .00000263  00000-0  34617-4 0  9998,2 49459  53.2179  33.1742 0001916  73.3813 286.7389 15.08833336 39221,6917.901,95.438,541.091,538.44,0.0
49459.0,STARLINK-3141,PAYLOAD,2022-07-26 21:35:23,15.08833445,0.0001919,53.2179,32.8768,73.374,286.7463,3.4096e-05,2.54e-06,0.0,0 STARLINK-3141,1 49459U 21104BD  22207.89957702  .00000254  00000-0  34096-4 0  9996,2 49459  53.2179  32.8768 0001919  73.3740 286.7463 15.08833445 39232,6917.9,95.438,541.0930000000002,538.438,0.0
49459.0,STARLINK-3141,PAYLOAD,2022-07-27 18:15:23,15.08843744,0.0001899,53.218,29.0115,74.4663,285.6539,6.1302e-05,6.88e-06,0.0,0 STARLINK-3141,1 49459U 21104BD  22208.76068950  .00000688  00000-0  61302-4 0  9992,2 49459  53.2180  29.0115 0001899  74.4663 285.6539 15.08843744 39360,6917.869000000002,95.437,541.048,538.42,0.0
49459.0,STARLINK-3141,PAYLOAD,2022-07-28 11:44:37,15.08847931,0.0001885,53.2183,25.7407,75.9281,284.192,2.1385e-05,5.2e-07,0.0,0 STARLINK-3141,1 49459U 21104BD  22209.48932466  .00000052  00000-0  21385-4 0  9996,2 49459  53.2183  25.7407 0001885  75.9281 284.1920 15.08847931 39479,6917.856,95.437,541.025,538.4169999999998,0.0
49459.0,STARLINK-3141,PAYLOAD,2022-07-28 21:16:57,15.08835463,0.0001849,53.2186,23.956,77.0921,283.0277,2.862e-05,1.67e-06,0.0,0 STARLINK-3141,1 49459U 21104BD  22209.88677222  .00000167  00000-0  28620-4 0  9992,2 49459  53.2186  23.9560 0001849  77.0921 283.0277 15.08835463 40603,6917.894,95.438,541.038,538.48,0.0
49459.0,STARLINK-3141,PAYLOAD,2022-07-29 11:35:25,15.08841808,0.0001841999999999,53.2186,21.2797,76.99,283.1298,-1.3131e-06,-3.09e-06,0.0,0 STARLINK-3141,1 49459U 21104BD  22210.48292974 -.00000309  00000-0 -13131-5 0  9999,2 49459  53.2186  21.2797 0001842  76.9900 283.1298 15.08841808 39628,6917.875,95.437,541.014,538.466,0.0
49459.0,STARLINK-3141,PAYLOAD,2022-07-29 17:56:57,15.0884546,0.0001841,53.2185,20.0903,77.3352,282.7846,2.9157e-05,1.76e-06,0.0,0 STARLINK-3141,1 49459U 21104BD  22210.74788546  .00000176  00000-0  29157-4 0  9997,2 49459  53.2185  20.0903 0001841  77.3352 282.7846 15.08845460 40734,6917.864000000001,95.437,541.002,538.455,0.0
49459.0,STARLINK-3141,PAYLOAD,2022-07-29 21:07:43,15.08844823,0.000184,53.2185,19.4956,77.3973,282.7224,2.3555e-05,8.7e-07,0.0,0 STARLINK-3141,1 49459U 21104BD  22210.88036565  .00000087  00000-0  23555-4 0  9996,2 49459  53.2185  19.4956 0001840  77.3973 282.7224 15.08844823 39686,6917.866,95.437,541.004,538.4580000000002,0.0
49459.0,STARLINK-3141,PAYLOAD,2022-07-30 11:26:12,15.08834628,0.0001663,53.218,16.8194,74.5472,285.5703,2.4972e-06,-2.48e-06,0.0,0 STARLINK-3141,1 49459U 21104BD  22211.47653180 -.00000248  00000-0  24972-5 0  9995,2 49459  53.2180  16.8194 0001663  74.5472 285.5703 15.08834628 40847,6917.897,95.438,540.9119999999998,538.611,0.0
49459.0,STARLINK-3141,PAYLOAD,2022-07-30 20:58:31,15.08829111,0.0001663,53.2178,15.0354,74.0394,286.0782,-1.5713e-05,-5.38e-06,0.0,0 STARLINK-3141,1 49459U 21104BD  22211.87397745 -.00000538  00000-0 -15713-4 0  9996,2 49459  53.2178  15.0354 0001663  74.0394 286.0782 15.08829111 39832,6917.9140000000025,95.438,540.929,538.628,0.0
49459.0,STARLINK-3141,PAYLOAD,2022-07-31 11:16:59,15.08833909,0.0001633,53.2179,12.359000000000002,73.6861,286.4311,-3.1123000000000007e-06,-3.38e-06,0.0,0 STARLINK-3141,1 49459U 21104BD  22212.47013619 -.00000338  00000-0 -31123-5 0  9990,2 49459  53.2179  12.3590 0001633  73.6861 286.4311 15.08833909 39928,6917.899,95.438,540.894,538.634,0.0
49459.0,STARLINK-3141,PAYLOAD,2022-07-31 19:13:55,15.08838032,0.0001633,53.2179,10.8722,73.0909,287.0262,2.7288e-06,-2.45e-06,0.0,0 STARLINK-3141,1 49459U 21104BD  22212.80133425 -.00000245  00000-0  27288-5 0  9998,2 49459  53.2179  10.8722 0001633  73.0909 287.0262 15.08838032 41045,6917.886,95.438,540.881,538.622,0.0
49459.0,STARLINK-3141,PAYLOAD,2022-08-01 11:07:46,15.08836779,0.0001595,53.2179,7.8987,73.6556,286.4612,9.5077e-05,1.225e-05,0.0,0 STARLINK-3141,1 49459U 21104BD  22213.46373236  .00001225  00000-0  95077-4 0  9995,2 49459  53.2179   7.8987 0001595  73.6556 286.4612 15.08836779 40075,6917.89,95.438,540.859,538.6519999999998,0.0
49459.0,STARLINK-3141,PAYLOAD,2022-08-01 19:04:41,15.08840244,0.0001609,53.2179,6.412000000000001,73.7708,286.3461,0.00011437,1.533e-05,0.0,0 STARLINK-3141,1 49459U 21104BD  22213.79492983  .00001533  00000-0  11437-3 0  9991,2 49459  53.2179   6.4120 0001609  73.7708 286.3461 15.08840244 40124,6917.88,95.438,540.8580000000002,538.632,0.0
49459.0,STARLINK-3141,PAYLOAD,2022-08-02 03:01:37,15.08841634,0.0001610999999999,53.2179,4.9252,73.4567,286.6602,0.00010155,1.329e-05,0.0,0 STARLINK-3141,1 49459U 21104BD  22214.12612923  .00001329  00000-0  10155-3 0  9996,2 49459  53.2179   4.9252 0001611  73.4567 286.6602 15.08841634 41244,6917.875,95.437,540.855,538.626,0.0
49459.0,STARLINK-3141,PAYLOAD,2022-08-02 10:58:34,15.08833572,0.0001641999999999,53.2186,3.4385,76.4908,283.6267,-1.0559000000000003e-05,-4.56e-06,0.0,0 STARLINK-3141,1 49459U 21104BD  22214.45733851 -.00000456  00000-0 -10559-4 0  9997,2 49459  53.2186   3.4385 0001642  76.4908 283.6267 15.08833572 41290,6917.9,95.438,540.901,538.629,0.0
49459.0,STARLINK-3141,PAYLOAD,2022-08-02 18:55:29,15.08833782,0.0001647,53.2182,1.9517,74.9041,285.2134,-8.0602e-06,-4.16e-06,0.0,0 STARLINK-3141,1 49459U 21104BD  22214.78853889 -.00000416  00000-0 -80602-5 0  9990,2 49459  53.2182   1.9517 0001647  74.9041 285.2134 15.08833782 40273,6917.899,95.438,540.904,538.625,0.0
49459.0,STARLINK-3141,PAYLOAD,2022-08-03 09:13:57,15.08842038,0.000149,53.2178,359.2749,74.7564,285.3593,1.7847e-05,-4e-08,0.0,0 STARLINK-3141,1 49459U 21104BD  22215.38469244 -.00000004  00000-0  17847-4 0  9997,2 49459  53.2178 359.2749 0001490  74.7564 285.3593 15.08842038 40362,6917.874,95.437,540.77,538.7080000000002,0.0
49459.0,STARLINK-3141,PAYLOAD,2022-08-03 18:46:16,15.08841228,0.0001625,53.2174,357.4904,76.1616,283.9556,7.7877e-05,9.52e-06,0.0,0 STARLINK-3141,1 49459U 21104BD  22215.78213060  .00000952  00000-0  77877-4 0  9994,2 49459  53.2174 357.4904 0001625  76.1616 283.9556 15.08841228 40425,6917.877,95.437,540.866,538.617,0.0
